{
  "norad_id": 39151,
  "name": "NEE-01 PEGASO",
  "history": [
    {
      "epoch": "2026-03-28T07:54:56.086848",
      "apogee_km": 597.464994383141,
      "perigee_km": 578.3095422092101,
      "latitude_deg": -27.834912091063334,
      "longitude_deg": -73.23768127989024,
      "semi_major_axis_km": 6966.024268296175,
      "eccentricity": 0.00137492,
      "inclination_deg": 98.1084,
      "raan_deg": 228.8894,
      "arg_perigee_deg": 73.4438,
      "mean_anomaly_deg": 286.8289,
      "mean_motion_rev_day": 14.9322512
    }
  ]
}